{
"type": "FeatureCollection",
"name": "kostanay_pois",
"crs": { "type": "name", "properties": { "name": "urn:ogc:def:crs:OGC:1.3:CRS84" } },
"features": [
{ "type": "Feature", "properties": { "name": "Аптека Фармаком", "amenity": "pharmacy", "shop": null }, "geometry": { "type": "Point", "coordinates": [ 63.6412181, 53.2179642 ] } },
{ "type": "Feature", "properties": { "name": "Аптека ИП Мазур", "amenity": "pharmacy", "shop": null }, "geometry": { "type": "Point", "coordinates": [ 63.6381866, 53.2180385 ] } },
{ "type": "Feature", "properties": { "name": "Аптека Цветная", "amenity": "pharmacy", "shop": null }, "geometry": { "type": "Point", "coordinates": [ 63.6408361, 53.2177155 ] } },
{ "type": "Feature", "properties": { "name": "Аптека № 59", "amenity": "pharmacy", "shop": null }, "geometry": { "type": "Point", "coordinates": [ 63.6354177, 53.2105235 ] } },
{ "type": "Feature", "properties": { "name": null, "amenity": "school", "shop": null }, "geometry": { "type": "Point", "coordinates": [ 63.6082844, 53.1897725 ] } },
{ "type": "Feature", "properties": { "name": null, "amenity": null, "shop": "convenience" }, "geometry": { "type": "Point", "coordinates": [ 63.6056762, 53.1878954 ] } },
{ "type": "Feature", "properties": { "name": "Амангельдинский магазин", "amenity": null, "shop": "supermarket" }, "geometry": { "type": "Point", "coordinates": [ 63.6357952, 53.2192766 ] } },
{ "type": "Feature", "properties": { "name": "ЦУМ", "amenity": null, "shop": "department_store" }, "geometry": { "type": "Point", "coordinates": [ 63.6367831, 53.2114346 ] } },
{ "type": "Feature", "properties": { "name": "Цветная", "amenity": "pharmacy", "shop": null }, "geometry": { "type": "Point", "coordinates": [ 63.6348152, 53.2103507 ] } },
{ "type": "Feature", "properties": { "name": null, "amenity": "pharmacy", "shop": null }, "geometry": { "type": "Point", "coordinates": [ 63.633889, 53.2078404 ] } },
{ "type": "Feature", "properties": { "name": "ДЭП", "amenity": null, "shop": "convenience" }, "geometry": { "type": "Point", "coordinates": [ 63.6337603, 53.2084855 ] } },
{ "type": "Feature", "properties": { "name": "ForteBank", "amenity": "bank", "shop": null }, "geometry": { "type": "Point", "coordinates": [ 63.6354684, 53.2146288 ] } },
{ "type": "Feature", "properties": { "name": "Цветная", "amenity": "pharmacy", "shop": null }, "geometry": { "type": "Point", "coordinates": [ 63.6273571, 53.2117825 ] } },
{ "type": "Feature", "properties": { "name": "Центральный гастроном", "amenity": null, "shop": "supermarket" }, "geometry": { "type": "Point", "coordinates": [ 63.6261639, 53.2120827 ] } },
{ "type": "Feature", "properties": { "name": "Бурёнка", "amenity": null, "shop": "convenience" }, "geometry": { "type": "Point", "coordinates": [ 63.6621942, 53.2320663 ] } },
{ "type": "Feature", "properties": { "name": "24 часа", "amenity": null, "shop": "convenience" }, "geometry": { "type": "Point", "coordinates": [ 63.632537, 53.2090394 ] } },
{ "type": "Feature", "properties": { "name": "Балапан", "amenity": null, "shop": "supermarket" }, "geometry": { "type": "Point", "coordinates": [ 63.6138121, 53.1916369 ] } },
{ "type": "Feature", "properties": { "name": "Жанна", "amenity": null, "shop": "convenience" }, "geometry": { "type": "Point", "coordinates": [ 63.636168, 53.2148626 ] } },
{ "type": "Feature", "properties": { "name": "Домик аптекаря", "amenity": "pharmacy", "shop": null }, "geometry": { "type": "Point", "coordinates": [ 63.635999, 53.2149848 ] } },
{ "type": "Feature", "properties": { "name": "Лаборатория И.В.Смолина", "amenity": "hospital", "shop": null }, "geometry": { "type": "Point", "coordinates": [ 63.626005, 53.2238302 ] } },
{ "type": "Feature", "properties": { "name": "Лаборатория ОЛИМП", "amenity": "hospital", "shop": null }, "geometry": { "type": "Point", "coordinates": [ 63.6370127, 53.2128629 ] } },
{ "type": "Feature", "properties": { "name": "Экспресс", "amenity": null, "shop": "department_store" }, "geometry": { "type": "Point", "coordinates": [ 63.6125644, 53.2235715 ] } },
{ "type": "Feature", "properties": { "name": "Юбилейный", "amenity": null, "shop": "mall" }, "geometry": { "type": "Point", "coordinates": [ 63.6248674, 53.2184277 ] } },
{ "type": "Feature", "properties": { "name": "Цветная", "amenity": "pharmacy", "shop": null }, "geometry": { "type": "Point", "coordinates": [ 63.6421738, 53.2143356 ] } },
{ "type": "Feature", "properties": { "name": "ФАРМАКОМ", "amenity": "pharmacy", "shop": null }, "geometry": { "type": "Point", "coordinates": [ 63.6331562, 53.2290552 ] } },
{ "type": "Feature", "properties": { "name": "Домик Аптекаря", "amenity": "pharmacy", "shop": null }, "geometry": { "type": "Point", "coordinates": [ 63.6300422, 53.2188928 ] } },
{ "type": "Feature", "properties": { "name": "Тополёк", "amenity": null, "shop": "convenience" }, "geometry": { "type": "Point", "coordinates": [ 63.6276974, 53.2163545 ] } },
{ "type": "Feature", "properties": { "name": "Аптека Забота", "amenity": "pharmacy", "shop": null }, "geometry": { "type": "Point", "coordinates": [ 63.63215, 53.2163401 ] } },
{ "type": "Feature", "properties": { "name": "Аптека Фармаком", "amenity": "pharmacy", "shop": null }, "geometry": { "type": "Point", "coordinates": [ 63.6307285, 53.2171929 ] } },
{ "type": "Feature", "properties": { "name": "ТД Дани", "amenity": null, "shop": "department_store" }, "geometry": { "type": "Point", "coordinates": [ 63.611066, 53.201188 ] } },
{ "type": "Feature", "properties": { "name": "Акжол", "amenity": null, "shop": "convenience" }, "geometry": { "type": "Point", "coordinates": [ 63.631559, 53.229073 ] } },
{ "type": "Feature", "properties": { "name": "Ахчинг", "amenity": null, "shop": "convenience" }, "geometry": { "type": "Point", "coordinates": [ 63.668923, 53.235233 ] } },
{ "type": "Feature", "properties": { "name": "Женис", "amenity": null, "shop": "convenience" }, "geometry": { "type": "Point", "coordinates": [ 63.6295572, 53.2254614 ] } },
{ "type": "Feature", "properties": { "name": "Исток", "amenity": null, "shop": "convenience" }, "geometry": { "type": "Point", "coordinates": [ 63.6206804, 53.2142003 ] } },
{ "type": "Feature", "properties": { "name": "Технодом", "amenity": null, "shop": "convenience" }, "geometry": { "type": "Point", "coordinates": [ 63.638478, 53.211998 ] } },
{ "type": "Feature", "properties": { "name": "Kaspi.kz", "amenity": "bank", "shop": null }, "geometry": { "type": "Point", "coordinates": [ 63.6377347, 53.2154875 ] } },
{ "type": "Feature", "properties": { "name": "Queen", "amenity": null, "shop": "convenience" }, "geometry": { "type": "Point", "coordinates": [ 63.624909, 53.200883 ] } },
{ "type": "Feature", "properties": { "name": "Апорт", "amenity": null, "shop": "supermarket" }, "geometry": { "type": "Point", "coordinates": [ 63.6269189, 53.2272023 ] } },
{ "type": "Feature", "properties": { "name": "Вокзал", "amenity": null, "shop": "convenience" }, "geometry": { "type": "Point", "coordinates": [ 63.606735, 53.226522 ] } },
{ "type": "Feature", "properties": { "name": "Жигер", "amenity": null, "shop": "convenience" }, "geometry": { "type": "Point", "coordinates": [ 63.6316721, 53.229019 ] } },
{ "type": "Feature", "properties": { "name": "Колос", "amenity": null, "shop": "convenience" }, "geometry": { "type": "Point", "coordinates": [ 63.640726, 53.210539 ] } },
{ "type": "Feature", "properties": { "name": "Мечта", "amenity": null, "shop": "convenience" }, "geometry": { "type": "Point", "coordinates": [ 63.5909635, 53.2116665 ] } },
{ "type": "Feature", "properties": { "name": "Фортуна", "amenity": null, "shop": "convenience" }, "geometry": { "type": "Point", "coordinates": [ 63.668991, 53.23457 ] } },
{ "type": "Feature", "properties": { "name": "Абди", "amenity": null, "shop": "convenience" }, "geometry": { "type": "Point", "coordinates": [ 63.6243996, 53.219062 ] } },
{ "type": "Feature", "properties": { "name": "Иволга", "amenity": null, "shop": "convenience" }, "geometry": { "type": "Point", "coordinates": [ 63.628651, 53.2310166 ] } },
{ "type": "Feature", "properties": { "name": "Березка", "amenity": null, "shop": "convenience" }, "geometry": { "type": "Point", "coordinates": [ 63.6158013, 53.1999987 ] } },
{ "type": "Feature", "properties": { "name": "Кайнар", "amenity": null, "shop": "department_store" }, "geometry": { "type": "Point", "coordinates": [ 63.6416351, 53.2185834 ] } },
{ "type": "Feature", "properties": { "name": null, "amenity": "pharmacy", "shop": null }, "geometry": { "type": "Point", "coordinates": [ 63.6192441, 53.2285482 ] } },
{ "type": "Feature", "properties": { "name": "Забота", "amenity": "pharmacy", "shop": null }, "geometry": { "type": "Point", "coordinates": [ 63.6312969, 53.2297576 ] } },
{ "type": "Feature", "properties": { "name": "Магазин бытовой техники TvT", "amenity": null, "shop": "supermarket" }, "geometry": { "type": "Point", "coordinates": [ 63.6419988, 53.24007 ] } },
{ "type": "Feature", "properties": { "name": null, "amenity": null, "shop": "supermarket" }, "geometry": { "type": "Point", "coordinates": [ 63.6267569, 53.1996221 ] } },
{ "type": "Feature", "properties": { "name": "продуктовый магазин Юпитер", "amenity": null, "shop": "convenience" }, "geometry": { "type": "Point", "coordinates": [ 63.6169932, 53.2008398 ] } },
{ "type": "Feature", "properties": { "name": "Продукты 24 час", "amenity": null, "shop": "convenience" }, "geometry": { "type": "Point", "coordinates": [ 63.6158224, 53.2004953 ] } },
{ "type": "Feature", "properties": { "name": null, "amenity": null, "shop": "convenience" }, "geometry": { "type": "Point", "coordinates": [ 63.6162322, 53.2020475 ] } },
{ "type": "Feature", "properties": { "name": "Аптека №59", "amenity": "pharmacy", "shop": null }, "geometry": { "type": "Point", "coordinates": [ 63.6244509, 53.2009703 ] } },
{ "type": "Feature", "properties": { "name": null, "amenity": "pharmacy", "shop": null }, "geometry": { "type": "Point", "coordinates": [ 63.616214, 53.1996309 ] } },
{ "type": "Feature", "properties": { "name": "Секрет", "amenity": null, "shop": "convenience" }, "geometry": { "type": "Point", "coordinates": [ 63.616633, 53.1999133 ] } },
{ "type": "Feature", "properties": { "name": null, "amenity": "pharmacy", "shop": null }, "geometry": { "type": "Point", "coordinates": [ 63.6185079, 53.1983829 ] } },
{ "type": "Feature", "properties": { "name": null, "amenity": null, "shop": "supermarket" }, "geometry": { "type": "Point", "coordinates": [ 63.6225049, 53.1964334 ] } },
{ "type": "Feature", "properties": { "name": "Резиновые изделия", "amenity": null, "shop": "supermarket" }, "geometry": { "type": "Point", "coordinates": [ 63.622403, 53.1963577 ] } },
{ "type": "Feature", "properties": { "name": null, "amenity": "pharmacy", "shop": null }, "geometry": { "type": "Point", "coordinates": [ 63.6154055, 53.1942815 ] } },
{ "type": "Feature", "properties": { "name": null, "amenity": null, "shop": "supermarket" }, "geometry": { "type": "Point", "coordinates": [ 63.6153204, 53.1943225 ] } },
{ "type": "Feature", "properties": { "name": "Чайка", "amenity": null, "shop": "supermarket" }, "geometry": { "type": "Point", "coordinates": [ 63.6161442, 53.1950844 ] } },
{ "type": "Feature", "properties": { "name": "Bereke Bank", "amenity": "bank", "shop": null }, "geometry": { "type": "Point", "coordinates": [ 63.6162371, 53.194939 ] } },
{ "type": "Feature", "properties": { "name": null, "amenity": null, "shop": "supermarket" }, "geometry": { "type": "Point", "coordinates": [ 63.6145719, 53.1929649 ] } },
{ "type": "Feature", "properties": { "name": null, "amenity": null, "shop": "supermarket" }, "geometry": { "type": "Point", "coordinates": [ 63.6154199, 53.1920289 ] } },
{ "type": "Feature", "properties": { "name": "Продукты", "amenity": null, "shop": "convenience" }, "geometry": { "type": "Point", "coordinates": [ 63.6125066, 53.1895406 ] } },
{ "type": "Feature", "properties": { "name": null, "amenity": null, "shop": "supermarket" }, "geometry": { "type": "Point", "coordinates": [ 63.6117777, 53.1893262 ] } },
{ "type": "Feature", "properties": { "name": null, "amenity": null, "shop": "supermarket" }, "geometry": { "type": "Point", "coordinates": [ 63.6117782, 53.1887784 ] } },
{ "type": "Feature", "properties": { "name": null, "amenity": "pharmacy", "shop": null }, "geometry": { "type": "Point", "coordinates": [ 63.6111336, 53.1885112 ] } },
{ "type": "Feature", "properties": { "name": "Кристал", "amenity": null, "shop": "supermarket" }, "geometry": { "type": "Point", "coordinates": [ 63.6160528, 53.2005476 ] } },
{ "type": "Feature", "properties": { "name": "Светлячок", "amenity": null, "shop": "supermarket" }, "geometry": { "type": "Point", "coordinates": [ 63.6164849, 53.2008064 ] } },
{ "type": "Feature", "properties": { "name": "Строитель", "amenity": null, "shop": "supermarket" }, "geometry": { "type": "Point", "coordinates": [ 63.6162448, 53.2006684 ] } },
{ "type": "Feature", "properties": { "name": "Олеся", "amenity": null, "shop": "supermarket" }, "geometry": { "type": "Point", "coordinates": [ 63.6113317, 53.1886009 ] } },
{ "type": "Feature", "properties": { "name": "Halyk Bank", "amenity": "bank", "shop": null }, "geometry": { "type": "Point", "coordinates": [ 63.6352314, 53.210168 ] } },
{ "type": "Feature", "properties": { "name": "Банкомат Народного Банка Казахстана", "amenity": "bank", "shop": null }, "geometry": { "type": "Point", "coordinates": [ 63.6351759, 53.2178902 ] } },
{ "type": "Feature", "properties": { "name": "Halyk Bank", "amenity": "bank", "shop": null }, "geometry": { "type": "Point", "coordinates": [ 63.6387493, 53.2122149 ] } },
{ "type": "Feature", "properties": { "name": "банкомат Народного Банка Казахстана", "amenity": "bank", "shop": null }, "geometry": { "type": "Point", "coordinates": [ 63.6368719, 53.2112777 ] } },
{ "type": "Feature", "properties": { "name": "Айна LINE", "amenity": null, "shop": "department_store" }, "geometry": { "type": "Point", "coordinates": [ 63.6404988, 53.2175233 ] } },
{ "type": "Feature", "properties": { "name": "Qazaq Oil", "amenity": "fuel", "shop": "convenience" }, "geometry": { "type": "Point", "coordinates": [ 63.5806945, 53.2141509 ] } },
{ "type": "Feature", "properties": { "name": "Зелёный", "amenity": null, "shop": "convenience" }, "geometry": { "type": "Point", "coordinates": [ 63.5988421, 53.2121248 ] } },
{ "type": "Feature", "properties": { "name": "Цветная", "amenity": "pharmacy", "shop": null }, "geometry": { "type": "Point", "coordinates": [ 63.626935, 53.2026484 ] } },
{ "type": "Feature", "properties": { "name": "Зара", "amenity": null, "shop": "convenience" }, "geometry": { "type": "Point", "coordinates": [ 63.5940335, 53.2132673 ] } },
{ "type": "Feature", "properties": { "name": "Маяк", "amenity": null, "shop": "convenience" }, "geometry": { "type": "Point", "coordinates": [ 63.5874398, 53.1900125 ] } },
{ "type": "Feature", "properties": { "name": "Mix", "amenity": null, "shop": "convenience" }, "geometry": { "type": "Point", "coordinates": [ 63.6248733, 53.2033114 ] } },
{ "type": "Feature", "properties": { "name": "Корзинка", "amenity": null, "shop": "supermarket" }, "geometry": { "type": "Point", "coordinates": [ 63.6208725, 53.2028657 ] } },
{ "type": "Feature", "properties": { "name": null, "amenity": "pharmacy", "shop": null }, "geometry": { "type": "Point", "coordinates": [ 63.6212888, 53.2031363 ] } },
{ "type": "Feature", "properties": { "name": "Умит", "amenity": null, "shop": "convenience" }, "geometry": { "type": "Point", "coordinates": [ 63.6590973, 53.2294128 ] } },
{ "type": "Feature", "properties": { "name": "ЦентрКредит", "amenity": "bank", "shop": null }, "geometry": { "type": "Point", "coordinates": [ 63.6342618, 53.2188429 ] } },
{ "type": "Feature", "properties": { "name": "Радуга", "amenity": null, "shop": "department_store" }, "geometry": { "type": "Point", "coordinates": [ 63.6128281, 53.2245938 ] } },
{ "type": "Feature", "properties": { "name": "Поликлиника № 1", "amenity": "hospital", "shop": null }, "geometry": { "type": "Point", "coordinates": [ 63.6289648, 53.2241653 ] } },
{ "type": "Feature", "properties": { "name": "SanSar", "amenity": null, "shop": "convenience" }, "geometry": { "type": "Point", "coordinates": [ 63.6142857, 53.2248225 ] } },
{ "type": "Feature", "properties": { "name": "Любава", "amenity": null, "shop": "convenience" }, "geometry": { "type": "Point", "coordinates": [ 63.6126408, 53.2241876 ] } },
{ "type": "Feature", "properties": { "name": "Кулинария", "amenity": null, "shop": "convenience" }, "geometry": { "type": "Point", "coordinates": [ 63.5955851, 53.2117678 ] } },
{ "type": "Feature", "properties": { "name": "Кунай", "amenity": null, "shop": "convenience" }, "geometry": { "type": "Point", "coordinates": [ 63.595837, 53.2138676 ] } },
{ "type": "Feature", "properties": { "name": "Угловой", "amenity": null, "shop": "convenience" }, "geometry": { "type": "Point", "coordinates": [ 63.5973733, 53.2145273 ] } },
{ "type": "Feature", "properties": { "name": null, "amenity": null, "shop": "convenience" }, "geometry": { "type": "Point", "coordinates": [ 63.5876072, 53.1902095 ] } },
{ "type": "Feature", "properties": { "name": null, "amenity": null, "shop": "convenience" }, "geometry": { "type": "Point", "coordinates": [ 63.5878065, 53.1887356 ] } },
{ "type": "Feature", "properties": { "name": "Союшка", "amenity": null, "shop": "convenience" }, "geometry": { "type": "Point", "coordinates": [ 63.5964611, 53.2116046 ] } },
{ "type": "Feature", "properties": { "name": "Best", "amenity": null, "shop": "convenience" }, "geometry": { "type": "Point", "coordinates": [ 63.6358179, 53.2176035 ] } },
{ "type": "Feature", "properties": { "name": "Жаңа", "amenity": null, "shop": "convenience" }, "geometry": { "type": "Point", "coordinates": [ 63.6364281, 53.2179947 ] } },
{ "type": "Feature", "properties": { "name": "АхчинГ", "amenity": null, "shop": "supermarket" }, "geometry": { "type": "Point", "coordinates": [ 63.657061, 53.2265979 ] } },
{ "type": "Feature", "properties": { "name": "Восток", "amenity": null, "shop": "supermarket" }, "geometry": { "type": "Point", "coordinates": [ 63.6563544, 53.2271001 ] } },
{ "type": "Feature", "properties": { "name": "Коробочка", "amenity": null, "shop": "convenience" }, "geometry": { "type": "Point", "coordinates": [ 63.6583637, 53.2265025 ] } },
{ "type": "Feature", "properties": { "name": "Забота", "amenity": "pharmacy", "shop": null }, "geometry": { "type": "Point", "coordinates": [ 63.6582607, 53.2265002 ] } },
{ "type": "Feature", "properties": { "name": null, "amenity": null, "shop": "convenience" }, "geometry": { "type": "Point", "coordinates": [ 63.5894341, 53.187115 ] } },
{ "type": "Feature", "properties": { "name": "Ереке", "amenity": null, "shop": "convenience" }, "geometry": { "type": "Point", "coordinates": [ 63.6229116, 53.2288773 ] } },
{ "type": "Feature", "properties": { "name": "Ника", "amenity": null, "shop": "convenience" }, "geometry": { "type": "Point", "coordinates": [ 63.6567348, 53.2275262 ] } },
{ "type": "Feature", "properties": { "name": null, "amenity": null, "shop": "convenience" }, "geometry": { "type": "Point", "coordinates": [ 63.5955051, 53.208722 ] } },
{ "type": "Feature", "properties": { "name": null, "amenity": null, "shop": "convenience" }, "geometry": { "type": "Point", "coordinates": [ 63.5960973, 53.2092873 ] } },
{ "type": "Feature", "properties": { "name": null, "amenity": null, "shop": "convenience" }, "geometry": { "type": "Point", "coordinates": [ 63.5949478, 53.2086008 ] } },
{ "type": "Feature", "properties": { "name": null, "amenity": null, "shop": "convenience" }, "geometry": { "type": "Point", "coordinates": [ 63.5963461, 53.2095976 ] } },
{ "type": "Feature", "properties": { "name": null, "amenity": null, "shop": "convenience" }, "geometry": { "type": "Point", "coordinates": [ 63.5930148, 53.2035204 ] } },
{ "type": "Feature", "properties": { "name": null, "amenity": null, "shop": "convenience" }, "geometry": { "type": "Point", "coordinates": [ 63.6026933, 53.1957809 ] } },
{ "type": "Feature", "properties": { "name": "Надежда", "amenity": null, "shop": "convenience" }, "geometry": { "type": "Point", "coordinates": [ 63.6033251, 53.197373 ] } },
{ "type": "Feature", "properties": { "name": null, "amenity": null, "shop": "convenience" }, "geometry": { "type": "Point", "coordinates": [ 63.6004907, 53.1945576 ] } },
{ "type": "Feature", "properties": { "name": null, "amenity": null, "shop": "convenience" }, "geometry": { "type": "Point", "coordinates": [ 63.6026793, 53.1953035 ] } },
{ "type": "Feature", "properties": { "name": null, "amenity": null, "shop": "convenience" }, "geometry": { "type": "Point", "coordinates": [ 63.6025682, 53.1953063 ] } },
{ "type": "Feature", "properties": { "name": null, "amenity": "pharmacy", "shop": null }, "geometry": { "type": "Point", "coordinates": [ 63.602421, 53.1953263 ] } },
{ "type": "Feature", "properties": { "name": null, "amenity": null, "shop": "convenience" }, "geometry": { "type": "Point", "coordinates": [ 63.59814, 53.1905181 ] } },
{ "type": "Feature", "properties": { "name": null, "amenity": null, "shop": "convenience" }, "geometry": { "type": "Point", "coordinates": [ 63.6027857, 53.1953011 ] } },
{ "type": "Feature", "properties": { "name": null, "amenity": null, "shop": "convenience" }, "geometry": { "type": "Point", "coordinates": [ 63.6057078, 53.1920118 ] } },
{ "type": "Feature", "properties": { "name": "Kaspi.kz", "amenity": "bank", "shop": null }, "geometry": { "type": "Point", "coordinates": [ 63.6138238, 53.2234601 ] } },
{ "type": "Feature", "properties": { "name": "Поликлиника №1", "amenity": "hospital", "shop": null }, "geometry": { "type": "Point", "coordinates": [ 63.620351, 53.2153475 ] } },
{ "type": "Feature", "properties": { "name": null, "amenity": null, "shop": "convenience" }, "geometry": { "type": "Point", "coordinates": [ 63.662349, 53.2326339 ] } },
{ "type": "Feature", "properties": { "name": null, "amenity": "school", "shop": null }, "geometry": { "type": "Point", "coordinates": [ 63.6101495, 53.1914644 ] } },
{ "type": "Feature", "properties": { "name": "Добрая", "amenity": "pharmacy", "shop": null }, "geometry": { "type": "Point", "coordinates": [ 63.6256156, 53.2179495 ] } },
{ "type": "Feature", "properties": { "name": "Алые паруса", "amenity": null, "shop": "convenience" }, "geometry": { "type": "Point", "coordinates": [ 63.6035843, 53.1968545 ] } },
{ "type": "Feature", "properties": { "name": "Валерик", "amenity": null, "shop": "convenience" }, "geometry": { "type": "Point", "coordinates": [ 63.6041317, 53.1965854 ] } },
{ "type": "Feature", "properties": { "name": "супермаркет Солнечный", "amenity": null, "shop": "supermarket" }, "geometry": { "type": "Point", "coordinates": [ 63.6227971, 53.2042538 ] } },
{ "type": "Feature", "properties": { "name": null, "amenity": null, "shop": "convenience" }, "geometry": { "type": "Point", "coordinates": [ 63.6114395, 53.1885709 ] } },
{ "type": "Feature", "properties": { "name": "Угловой", "amenity": null, "shop": "convenience" }, "geometry": { "type": "Point", "coordinates": [ 63.6610211, 53.2268483 ] } },
{ "type": "Feature", "properties": { "name": null, "amenity": "kindergarten", "shop": null }, "geometry": { "type": "Point", "coordinates": [ 63.6243295, 53.2053932 ] } },
{ "type": "Feature", "properties": { "name": null, "amenity": null, "shop": "convenience" }, "geometry": { "type": "Point", "coordinates": [ 63.6160272, 53.1951852 ] } },
{ "type": "Feature", "properties": { "name": "Удача", "amenity": null, "shop": "convenience" }, "geometry": { "type": "Point", "coordinates": [ 63.6594325, 53.2264508 ] } },
{ "type": "Feature", "properties": { "name": "Салем", "amenity": null, "shop": "convenience" }, "geometry": { "type": "Point", "coordinates": [ 63.6193181, 53.2285069 ] } },
{ "type": "Feature", "properties": { "name": null, "amenity": null, "shop": "convenience" }, "geometry": { "type": "Point", "coordinates": [ 63.6596484, 53.2302361 ] } },
{ "type": "Feature", "properties": { "name": null, "amenity": null, "shop": "convenience" }, "geometry": { "type": "Point", "coordinates": [ 63.6489097, 53.2258985 ] } },
{ "type": "Feature", "properties": { "name": "Қытай медицинасы орталығы", "amenity": "clinic", "shop": null }, "geometry": { "type": "Point", "coordinates": [ 63.6330797, 53.2180539 ] } },
{ "type": "Feature", "properties": { "name": "Казына", "amenity": null, "shop": "mall" }, "geometry": { "type": "Point", "coordinates": [ 63.6440686, 53.2199864 ] } },
{ "type": "Feature", "properties": { "name": null, "amenity": null, "shop": "supermarket" }, "geometry": { "type": "Point", "coordinates": [ 63.6059308, 53.188884 ] } },
{ "type": "Feature", "properties": { "name": null, "amenity": null, "shop": "convenience" }, "geometry": { "type": "Point", "coordinates": [ 63.6081762, 53.1951085 ] } },
{ "type": "Feature", "properties": { "name": null, "amenity": null, "shop": "convenience" }, "geometry": { "type": "Point", "coordinates": [ 63.621819, 53.2110954 ] } },
{ "type": "Feature", "properties": { "name": "Наурыз", "amenity": null, "shop": "convenience" }, "geometry": { "type": "Point", "coordinates": [ 63.6066465, 53.2073746 ] } },
{ "type": "Feature", "properties": { "name": null, "amenity": null, "shop": "supermarket" }, "geometry": { "type": "Point", "coordinates": [ 63.6600598, 53.2362699 ] } },
{ "type": "Feature", "properties": { "name": null, "amenity": null, "shop": "convenience" }, "geometry": { "type": "Point", "coordinates": [ 63.6625673, 53.2245937 ] } },
{ "type": "Feature", "properties": { "name": null, "amenity": null, "shop": "convenience" }, "geometry": { "type": "Point", "coordinates": [ 63.6704039, 53.2283577 ] } },
{ "type": "Feature", "properties": { "name": null, "amenity": null, "shop": "convenience" }, "geometry": { "type": "Point", "coordinates": [ 63.6276834, 53.2389629 ] } },
{ "type": "Feature", "properties": { "name": null, "amenity": null, "shop": "convenience" }, "geometry": { "type": "Point", "coordinates": [ 63.6581664, 53.2336165 ] } },
{ "type": "Feature", "properties": { "name": null, "amenity": null, "shop": "supermarket" }, "geometry": { "type": "Point", "coordinates": [ 63.6411496, 53.2196417 ] } },
{ "type": "Feature", "properties": { "name": "Кумыр", "amenity": null, "shop": "convenience" }, "geometry": { "type": "Point", "coordinates": [ 63.6682788, 53.2350654 ] } },
{ "type": "Feature", "properties": { "name": "У Петровича", "amenity": null, "shop": "convenience" }, "geometry": { "type": "Point", "coordinates": [ 63.6700528, 53.2336893 ] } },
{ "type": "Feature", "properties": { "name": "Ахчин Г", "amenity": null, "shop": "convenience" }, "geometry": { "type": "Point", "coordinates": [ 63.6688728, 53.2352517 ] } },
{ "type": "Feature", "properties": { "name": "Пяточок", "amenity": null, "shop": "convenience" }, "geometry": { "type": "Point", "coordinates": [ 63.6108996, 53.2180966 ] } },
{ "type": "Feature", "properties": { "name": "Home Credit Bank", "amenity": "bank", "shop": null }, "geometry": { "type": "Point", "coordinates": [ 63.6093997, 53.2256594 ] } },
{ "type": "Feature", "properties": { "name": "АРЧА", "amenity": null, "shop": "convenience" }, "geometry": { "type": "Point", "coordinates": [ 63.6413334, 53.2112157 ] } },
{ "type": "Feature", "properties": { "name": "Rauzet", "amenity": null, "shop": "supermarket" }, "geometry": { "type": "Point", "coordinates": [ 63.6348832, 53.2085823 ] } },
{ "type": "Feature", "properties": { "name": "Halyk Bank", "amenity": "bank", "shop": null }, "geometry": { "type": "Point", "coordinates": [ 63.6375197, 53.2102894 ] } },
{ "type": "Feature", "properties": { "name": "Лидер", "amenity": null, "shop": "convenience" }, "geometry": { "type": "Point", "coordinates": [ 63.6345854, 53.2387079 ] } },
{ "type": "Feature", "properties": { "name": null, "amenity": "pharmacy", "shop": null }, "geometry": { "type": "Point", "coordinates": [ 63.6394762, 53.2139662 ] } },
{ "type": "Feature", "properties": { "name": "ForteBank", "amenity": "bank", "shop": null }, "geometry": { "type": "Point", "coordinates": [ 63.6183688, 53.2231125 ] } },
{ "type": "Feature", "properties": { "name": "ForteBank", "amenity": "bank", "shop": null }, "geometry": { "type": "Point", "coordinates": [ 63.6378282, 53.2102943 ] } },
{ "type": "Feature", "properties": { "name": "Kaspi.kz", "amenity": "bank", "shop": null }, "geometry": { "type": "Point", "coordinates": [ 63.6368421, 53.2112386 ] } },
{ "type": "Feature", "properties": { "name": "Изюминка", "amenity": null, "shop": "convenience" }, "geometry": { "type": "Point", "coordinates": [ 63.6261692, 53.2186759 ] } },
{ "type": "Feature", "properties": { "name": "Jusan", "amenity": "bank", "shop": null }, "geometry": { "type": "Point", "coordinates": [ 63.625989, 53.2171818 ] } },
{ "type": "Feature", "properties": { "name": "Bereke Bank", "amenity": "bank", "shop": null }, "geometry": { "type": "Point", "coordinates": [ 63.6358336, 53.211304 ] } },
{ "type": "Feature", "properties": { "name": "Bereke Bank", "amenity": "bank", "shop": null }, "geometry": { "type": "Point", "coordinates": [ 63.632239, 53.217492 ] } },
{ "type": "Feature", "properties": { "name": "Small", "amenity": null, "shop": "supermarket" }, "geometry": { "type": "Point", "coordinates": [ 63.6381125, 53.2120291 ] } },
{ "type": "Feature", "properties": { "name": "ВТБ Банк", "amenity": "bank", "shop": null }, "geometry": { "type": "Point", "coordinates": [ 63.6285478, 53.219072 ] } },
{ "type": "Feature", "properties": { "name": "Small", "amenity": null, "shop": "supermarket" }, "geometry": { "type": "Point", "coordinates": [ 63.6237842, 53.2007148 ] } },
{ "type": "Feature", "properties": { "name": null, "amenity": null, "shop": "supermarket" }, "geometry": { "type": "Point", "coordinates": [ 63.6229085, 53.2116301 ] } },
{ "type": "Feature", "properties": { "name": null, "amenity": null, "shop": "convenience" }, "geometry": { "type": "Point", "coordinates": [ 63.6274931, 53.2188029 ] } },
{ "type": "Feature", "properties": { "name": "Ласточка", "amenity": null, "shop": "convenience" }, "geometry": { "type": "Point", "coordinates": [ 63.6626513, 53.2287847 ] } },
{ "type": "Feature", "properties": { "name": "Фреш маркет", "amenity": null, "shop": "supermarket" }, "geometry": { "type": "Point", "coordinates": [ 63.5977493, 53.2099293 ] } },
{ "type": "Feature", "properties": { "name": "Rauzet", "amenity": null, "shop": "supermarket" }, "geometry": { "type": "Point", "coordinates": [ 63.6003313, 53.1953571 ] } },
{ "type": "Feature", "properties": { "name": "Rauzet", "amenity": null, "shop": "supermarket" }, "geometry": { "type": "Point", "coordinates": [ 63.5922079, 53.2037844 ] } },
{ "type": "Feature", "properties": { "name": "Rauzet", "amenity": null, "shop": "supermarket" }, "geometry": { "type": "Point", "coordinates": [ 63.6407898, 53.2103961 ] } },
{ "type": "Feature", "properties": { "name": "Rauzet", "amenity": null, "shop": "supermarket" }, "geometry": { "type": "Point", "coordinates": [ 63.6274031, 53.2148435 ] } },
{ "type": "Feature", "properties": { "name": "Дракон ТД", "amenity": null, "shop": "mall" }, "geometry": { "type": "Point", "coordinates": [ 63.6422508, 53.2178881 ] } },
{ "type": "Feature", "properties": { "name": "Small", "amenity": null, "shop": "supermarket" }, "geometry": { "type": "Point", "coordinates": [ 63.6223465, 53.2213717 ] } },
{ "type": "Feature", "properties": { "name": "Bank CenterCredit", "amenity": "bank", "shop": null }, "geometry": { "type": "Point", "coordinates": [ 63.613482, 53.2369205 ] } },
{ "type": "Feature", "properties": { "name": "Bank CenterCredit", "amenity": "bank", "shop": null }, "geometry": { "type": "Point", "coordinates": [ 63.6200828, 53.2154471 ] } },
{ "type": "Feature", "properties": { "name": "Home Credit Bank", "amenity": "bank", "shop": null }, "geometry": { "type": "Point", "coordinates": [ 63.6133613, 53.2370007 ] } },
{ "type": "Feature", "properties": { "name": "Home Credit Bank", "amenity": "bank", "shop": null }, "geometry": { "type": "Point", "coordinates": [ 63.6427072, 53.2103923 ] } },
{ "type": "Feature", "properties": { "name": "Home Credit Bank", "amenity": "bank", "shop": null }, "geometry": { "type": "Point", "coordinates": [ 63.6397514, 53.2177486 ] } },
{ "type": "Feature", "properties": { "name": "Halyk Bank", "amenity": "bank", "shop": null }, "geometry": { "type": "Point", "coordinates": [ 63.6093082, 53.2256625 ] } },
{ "type": "Feature", "properties": { "name": "Halyk Bank", "amenity": "bank", "shop": null }, "geometry": { "type": "Point", "coordinates": [ 63.61702, 53.22168 ] } },
{ "type": "Feature", "properties": { "name": "Анар", "amenity": null, "shop": "convenience" }, "geometry": { "type": "Point", "coordinates": [ 63.6059117, 53.215059 ] } },
{ "type": "Feature", "properties": { "name": "Барс", "amenity": null, "shop": "convenience" }, "geometry": { "type": "Point", "coordinates": [ 63.603668, 53.1917808 ] } },
{ "type": "Feature", "properties": { "name": "Хороший", "amenity": null, "shop": "convenience" }, "geometry": { "type": "Point", "coordinates": [ 63.6138232, 53.2115617 ] } },
{ "type": "Feature", "properties": { "name": "Журавушка", "amenity": null, "shop": "convenience" }, "geometry": { "type": "Point", "coordinates": [ 63.6138847, 53.2115967 ] } },
{ "type": "Feature", "properties": { "name": "Поликлиника №6", "amenity": "hospital", "shop": null }, "geometry": { "type": "Point", "coordinates": [ 63.6258469, 53.2030689 ] } },
{ "type": "Feature", "properties": { "name": "Jasmine", "amenity": null, "shop": "convenience" }, "geometry": { "type": "Point", "coordinates": [ 63.6171568, 53.2071877 ] } },
{ "type": "Feature", "properties": { "name": "Минимаркет", "amenity": null, "shop": "supermarket" }, "geometry": { "type": "Point", "coordinates": [ 63.6070799, 53.216458 ] } },
{ "type": "Feature", "properties": { "name": "УДома", "amenity": null, "shop": "convenience" }, "geometry": { "type": "Point", "coordinates": [ 63.6066399, 53.2181359 ] } },
{ "type": "Feature", "properties": { "name": "У Олеси", "amenity": null, "shop": "convenience" }, "geometry": { "type": "Point", "coordinates": [ 63.6072831, 53.2174943 ] } },
{ "type": "Feature", "properties": { "name": "Солнышко", "amenity": "kindergarten", "shop": null }, "geometry": { "type": "Point", "coordinates": [ 63.6110551, 53.2181839 ] } },
{ "type": "Feature", "properties": { "name": "Balaqai", "amenity": "kindergarten", "shop": null }, "geometry": { "type": "Point", "coordinates": [ 63.6234845, 53.2285687 ] } },
{ "type": "Feature", "properties": { "name": null, "amenity": null, "shop": "convenience" }, "geometry": { "type": "Point", "coordinates": [ 63.6183768, 53.2271293 ] } },
{ "type": "Feature", "properties": { "name": "Успех", "amenity": null, "shop": "convenience" }, "geometry": { "type": "Point", "coordinates": [ 63.6073935, 53.2167093 ] } },
{ "type": "Feature", "properties": { "name": "Рамина", "amenity": null, "shop": "convenience" }, "geometry": { "type": "Point", "coordinates": [ 63.597847, 53.2124494 ] } },
{ "type": "Feature", "properties": { "name": "Диар", "amenity": null, "shop": "convenience" }, "geometry": { "type": "Point", "coordinates": [ 63.5992285, 53.2123004 ] } },
{ "type": "Feature", "properties": { "name": "Забота", "amenity": "pharmacy", "shop": null }, "geometry": { "type": "Point", "coordinates": [ 63.5989598, 53.2121729 ] } },
{ "type": "Feature", "properties": { "name": "Inmart", "amenity": null, "shop": "supermarket" }, "geometry": { "type": "Point", "coordinates": [ 63.5937034, 53.2119708 ] } },
{ "type": "Feature", "properties": { "name": "Дом алхимика", "amenity": "pharmacy", "shop": null }, "geometry": { "type": "Point", "coordinates": [ 63.6107651, 53.225051 ] } },
{ "type": "Feature", "properties": { "name": "Солнышко", "amenity": null, "shop": "convenience" }, "geometry": { "type": "Point", "coordinates": [ 63.6325379, 53.235085 ] } },
{ "type": "Feature", "properties": { "name": "Аптека Забота", "amenity": "pharmacy", "shop": null }, "geometry": { "type": "Point", "coordinates": [ 63.6407679, 53.217454 ] } },
{ "type": "Feature", "properties": { "name": "Банк Каспийский", "amenity": "bank", "shop": null }, "geometry": { "type": "Point", "coordinates": [ 63.639576, 53.2190941 ] } },
{ "type": "Feature", "properties": { "name": "ГУМ", "amenity": null, "shop": "department_store" }, "geometry": { "type": "Point", "coordinates": [ 63.6420418, 53.2174723 ] } },
{ "type": "Feature", "properties": { "name": "Эвелина", "amenity": null, "shop": "department_store" }, "geometry": { "type": "Point", "coordinates": [ 63.6409776, 53.2189068 ] } },
{ "type": "Feature", "properties": { "name": "ТД Евроцентр", "amenity": null, "shop": "department_store" }, "geometry": { "type": "Point", "coordinates": [ 63.6411485, 53.2171862 ] } },
{ "type": "Feature", "properties": { "name": "ТД Азия", "amenity": null, "shop": "department_store" }, "geometry": { "type": "Point", "coordinates": [ 63.6411453, 53.2167884 ] } },
{ "type": "Feature", "properties": { "name": "Eurasian Bank", "amenity": "bank", "shop": null }, "geometry": { "type": "Point", "coordinates": [ 63.6366529, 53.2163094 ] } },
{ "type": "Feature", "properties": { "name": "АТФ Банк Костанайский филиал", "amenity": "bank", "shop": null }, "geometry": { "type": "Point", "coordinates": [ 63.6396287, 53.2171613 ] } },
{ "type": "Feature", "properties": { "name": null, "amenity": null, "shop": "convenience" }, "geometry": { "type": "Point", "coordinates": [ 63.6386507, 53.2177286 ] } },
{ "type": "Feature", "properties": { "name": null, "amenity": "school", "shop": null }, "geometry": { "type": "Point", "coordinates": [ 63.6383152, 53.2167898 ] } },
{ "type": "Feature", "properties": { "name": "Медицинский Центр КГУ", "amenity": "hospital", "shop": null }, "geometry": { "type": "Point", "coordinates": [ 63.6127459, 53.1889343 ] } },
{ "type": "Feature", "properties": { "name": "Детский сад № 7", "amenity": "kindergarten", "shop": null }, "geometry": { "type": "Point", "coordinates": [ 63.6160725, 53.193857 ] } },
{ "type": "Feature", "properties": { "name": "ТД \"Емшан\"", "amenity": null, "shop": "mall" }, "geometry": { "type": "Point", "coordinates": [ 63.6131944, 53.191328 ] } },
{ "type": "Feature", "properties": { "name": null, "amenity": "pharmacy", "shop": null }, "geometry": { "type": "Point", "coordinates": [ 63.6225831, 53.2005903 ] } },
{ "type": "Feature", "properties": { "name": null, "amenity": null, "shop": "convenience" }, "geometry": { "type": "Point", "coordinates": [ 63.6244569, 53.2005367 ] } },
{ "type": "Feature", "properties": { "name": "Детская городская больница", "amenity": "hospital", "shop": null }, "geometry": { "type": "Point", "coordinates": [ 63.6210082, 53.2015329 ] } },
{ "type": "Feature", "properties": { "name": "Наримановка", "amenity": null, "shop": "department_store" }, "geometry": { "type": "Point", "coordinates": [ 63.6239678, 53.2006664 ] } },
{ "type": "Feature", "properties": { "name": "Поликлиника № 2", "amenity": "hospital", "shop": null }, "geometry": { "type": "Point", "coordinates": [ 63.6184894, 53.1983988 ] } },
{ "type": "Feature", "properties": { "name": null, "amenity": null, "shop": "convenience" }, "geometry": { "type": "Point", "coordinates": [ 63.6091887, 53.1965672 ] } },
{ "type": "Feature", "properties": { "name": "Детское легочное отделение", "amenity": "hospital", "shop": null }, "geometry": { "type": "Point", "coordinates": [ 63.6051832, 53.190938 ] } },
{ "type": "Feature", "properties": { "name": "Областной тубдиспансер", "amenity": "hospital", "shop": null }, "geometry": { "type": "Point", "coordinates": [ 63.6071458, 53.1912259 ] } },
{ "type": "Feature", "properties": { "name": "Тубдиспансер", "amenity": "hospital", "shop": null }, "geometry": { "type": "Point", "coordinates": [ 63.606257, 53.1913657 ] } },
{ "type": "Feature", "properties": { "name": "Ясли-сад № 16", "amenity": "kindergarten", "shop": null }, "geometry": { "type": "Point", "coordinates": [ 63.6021587, 53.1931874 ] } },
{ "type": "Feature", "properties": { "name": "Магазин смешанных товаров", "amenity": null, "shop": "department_store" }, "geometry": { "type": "Point", "coordinates": [ 63.6006953, 53.1952807 ] } },
{ "type": "Feature", "properties": { "name": "Шуак", "amenity": null, "shop": "supermarket" }, "geometry": { "type": "Point", "coordinates": [ 63.5871598, 53.1901951 ] } },
{ "type": "Feature", "properties": { "name": "Школа-интернат Озат", "amenity": "school", "shop": null }, "geometry": { "type": "Point", "coordinates": [ 63.6047615, 53.1986066 ] } },
{ "type": "Feature", "properties": { "name": "ТОТ", "amenity": null, "shop": "supermarket" }, "geometry": { "type": "Point", "coordinates": [ 63.603407, 53.1958407 ] } },
{ "type": "Feature", "properties": { "name": "№6 жалпы білім беру мектебі", "amenity": "school", "shop": null }, "geometry": { "type": "Point", "coordinates": [ 63.5998892, 53.2004332 ] } },
{ "type": "Feature", "properties": { "name": "№2 бөбекжай-балабақша", "amenity": "kindergarten", "shop": null }, "geometry": { "type": "Point", "coordinates": [ 63.6133382, 53.1995381 ] } },
{ "type": "Feature", "properties": { "name": "Средняя школа № 18", "amenity": "school", "shop": null }, "geometry": { "type": "Point", "coordinates": [ 63.6116082, 53.198025 ] } },
{ "type": "Feature", "properties": { "name": "Ясли-сад № 4", "amenity": "kindergarten", "shop": null }, "geometry": { "type": "Point", "coordinates": [ 63.5934149, 53.2046048 ] } },
{ "type": "Feature", "properties": { "name": "Ассорти", "amenity": null, "shop": "department_store" }, "geometry": { "type": "Point", "coordinates": [ 63.5969065, 53.2100781 ] } },
{ "type": "Feature", "properties": { "name": null, "amenity": null, "shop": "mall" }, "geometry": { "type": "Point", "coordinates": [ 63.6365374, 53.2114694 ] } },
{ "type": "Feature", "properties": { "name": "ЦУМ", "amenity": null, "shop": "mall" }, "geometry": { "type": "Point", "coordinates": [ 63.636689, 53.2112502 ] } },
{ "type": "Feature", "properties": { "name": null, "amenity": null, "shop": "mall" }, "geometry": { "type": "Point", "coordinates": [ 63.6369162, 53.2112377 ] } },
{ "type": "Feature", "properties": { "name": null, "amenity": null, "shop": "mall" }, "geometry": { "type": "Point", "coordinates": [ 63.6371272, 53.2110967 ] } },
{ "type": "Feature", "properties": { "name": "Рахат", "amenity": null, "shop": "department_store" }, "geometry": { "type": "Point", "coordinates": [ 63.635037, 53.2085118 ] } },
{ "type": "Feature", "properties": { "name": "Детский сад № 3", "amenity": "kindergarten", "shop": null }, "geometry": { "type": "Point", "coordinates": [ 63.6380359, 53.2083013 ] } },
{ "type": "Feature", "properties": { "name": "Норма", "amenity": null, "shop": "supermarket" }, "geometry": { "type": "Point", "coordinates": [ 63.6343952, 53.2080617 ] } },
{ "type": "Feature", "properties": { "name": null, "amenity": null, "shop": "department_store" }, "geometry": { "type": "Point", "coordinates": [ 63.6339858, 53.2067035 ] } },
{ "type": "Feature", "properties": { "name": "Ясли-сад № 61", "amenity": "kindergarten", "shop": null }, "geometry": { "type": "Point", "coordinates": [ 63.6292272, 53.2079847 ] } },
{ "type": "Feature", "properties": { "name": "Сырбай Мәуленов атындағы гимназиясы", "amenity": "school", "shop": null }, "geometry": { "type": "Point", "coordinates": [ 63.6319921, 53.2104484 ] } },
{ "type": "Feature", "properties": { "name": "Казахско-французский культурный и торговый центр", "amenity": null, "shop": "department_store" }, "geometry": { "type": "Point", "coordinates": [ 63.6266996, 53.2118923 ] } },
{ "type": "Feature", "properties": { "name": null, "amenity": null, "shop": "department_store" }, "geometry": { "type": "Point", "coordinates": [ 63.624425, 53.2120627 ] } },
{ "type": "Feature", "properties": { "name": null, "amenity": "school", "shop": null }, "geometry": { "type": "Point", "coordinates": [ 63.6233201, 53.2106308 ] } },
{ "type": "Feature", "properties": { "name": "Музыкальная школа №1", "amenity": "school", "shop": null }, "geometry": { "type": "Point", "coordinates": [ 63.6216862, 53.2130563 ] } },
{ "type": "Feature", "properties": { "name": null, "amenity": "kindergarten", "shop": null }, "geometry": { "type": "Point", "coordinates": [ 63.6232993, 53.2132806 ] } },
{ "type": "Feature", "properties": { "name": "Бостан СО", "amenity": null, "shop": "mall" }, "geometry": { "type": "Point", "coordinates": [ 63.609156, 53.2169413 ] } },
{ "type": "Feature", "properties": { "name": null, "amenity": null, "shop": "department_store" }, "geometry": { "type": "Point", "coordinates": [ 63.6191345, 53.2206819 ] } },
{ "type": "Feature", "properties": { "name": "Казкоммерцбанк", "amenity": "bank", "shop": null }, "geometry": { "type": "Point", "coordinates": [ 63.6170707, 53.2216195 ] } },
{ "type": "Feature", "properties": { "name": "Бородинский", "amenity": null, "shop": "supermarket" }, "geometry": { "type": "Point", "coordinates": [ 63.6237378, 53.2143275 ] } },
{ "type": "Feature", "properties": { "name": "Частная клиника Марьям", "amenity": "clinic", "shop": null }, "geometry": { "type": "Point", "coordinates": [ 63.6245689, 53.2138819 ] } },
{ "type": "Feature", "properties": { "name": null, "amenity": "school", "shop": null }, "geometry": { "type": "Point", "coordinates": [ 63.6253003, 53.2159355 ] } },
{ "type": "Feature", "properties": { "name": "Цветная", "amenity": "pharmacy", "shop": null }, "geometry": { "type": "Point", "coordinates": [ 63.623973, 53.2140986 ] } },
{ "type": "Feature", "properties": { "name": null, "amenity": null, "shop": "department_store" }, "geometry": { "type": "Point", "coordinates": [ 63.6248156, 53.217715 ] } },
{ "type": "Feature", "properties": { "name": "Средняя школа № 1", "amenity": "school", "shop": null }, "geometry": { "type": "Point", "coordinates": [ 63.6226893, 53.2167512 ] } },
{ "type": "Feature", "properties": { "name": "Художественная школа", "amenity": "school", "shop": null }, "geometry": { "type": "Point", "coordinates": [ 63.6303581, 53.2148526 ] } },
{ "type": "Feature", "properties": { "name": "Halyk Bank", "amenity": "bank", "shop": null }, "geometry": { "type": "Point", "coordinates": [ 63.6396333, 53.2108169 ] } },
{ "type": "Feature", "properties": { "name": "Bank CenterCredit", "amenity": "bank", "shop": null }, "geometry": { "type": "Point", "coordinates": [ 63.6382433, 53.2129377 ] } },
{ "type": "Feature", "properties": { "name": "\"Mart\" СОК", "amenity": null, "shop": "mall" }, "geometry": { "type": "Point", "coordinates": [ 63.6383103, 53.2121829 ] } },
{ "type": "Feature", "properties": { "name": "Школа-интернат", "amenity": "school", "shop": null }, "geometry": { "type": "Point", "coordinates": [ 63.6363243, 53.2135265 ] } },
{ "type": "Feature", "properties": { "name": "Jusan", "amenity": "bank", "shop": null }, "geometry": { "type": "Point", "coordinates": [ 63.6345106, 53.2146944 ] } },
{ "type": "Feature", "properties": { "name": "Кафе \"Карделен\"", "amenity": null, "shop": "department_store" }, "geometry": { "type": "Point", "coordinates": [ 63.6305234, 53.2154841 ] } },
{ "type": "Feature", "properties": { "name": "Атриум", "amenity": null, "shop": "department_store" }, "geometry": { "type": "Point", "coordinates": [ 63.6301281, 53.2156999 ] } },
{ "type": "Feature", "properties": { "name": null, "amenity": null, "shop": "department_store" }, "geometry": { "type": "Point", "coordinates": [ 63.6254568, 53.2189478 ] } },
{ "type": "Feature", "properties": { "name": "Жагат", "amenity": null, "shop": "convenience" }, "geometry": { "type": "Point", "coordinates": [ 63.624731, 53.2186795 ] } },
{ "type": "Feature", "properties": { "name": "Ясли-сад № 44", "amenity": "kindergarten", "shop": null }, "geometry": { "type": "Point", "coordinates": [ 63.6276895, 53.2178574 ] } },
{ "type": "Feature", "properties": { "name": "ТД Сезон", "amenity": null, "shop": "department_store" }, "geometry": { "type": "Point", "coordinates": [ 63.628393, 53.2166273 ] } },
{ "type": "Feature", "properties": { "name": "Иволга-Растр", "amenity": null, "shop": "supermarket" }, "geometry": { "type": "Point", "coordinates": [ 63.6223955, 53.2199887 ] } },
{ "type": "Feature", "properties": { "name": "ForteBank", "amenity": "bank", "shop": null }, "geometry": { "type": "Point", "coordinates": [ 63.6181931, 53.2230745 ] } },
{ "type": "Feature", "properties": { "name": "Городская Больница", "amenity": "hospital", "shop": null }, "geometry": { "type": "Point", "coordinates": [ 63.6120699, 53.2258192 ] } },
{ "type": "Feature", "properties": { "name": "Горбольница", "amenity": "hospital", "shop": null }, "geometry": { "type": "Point", "coordinates": [ 63.6116774, 53.2255886 ] } },
{ "type": "Feature", "properties": { "name": "ТЦ Элем", "amenity": null, "shop": "department_store" }, "geometry": { "type": "Point", "coordinates": [ 63.6096545, 53.2254431 ] } },
{ "type": "Feature", "properties": { "name": "Нур", "amenity": null, "shop": "department_store" }, "geometry": { "type": "Point", "coordinates": [ 63.6122656, 53.2242618 ] } },
{ "type": "Feature", "properties": { "name": "Байконур", "amenity": null, "shop": "convenience" }, "geometry": { "type": "Point", "coordinates": [ 63.6103033, 53.2221158 ] } },
{ "type": "Feature", "properties": { "name": "Средняя школа № 115", "amenity": "school", "shop": null }, "geometry": { "type": "Point", "coordinates": [ 63.6092909, 53.2239717 ] } },
{ "type": "Feature", "properties": { "name": "Балык", "amenity": null, "shop": "convenience" }, "geometry": { "type": "Point", "coordinates": [ 63.6039356, 53.2146363 ] } },
{ "type": "Feature", "properties": { "name": "Емхана Жемчужин", "amenity": "hospital", "shop": null }, "geometry": { "type": "Point", "coordinates": [ 63.5897585, 53.2124356 ] } },
{ "type": "Feature", "properties": { "name": "Цветная дәріханасы", "amenity": "pharmacy", "shop": null }, "geometry": { "type": "Point", "coordinates": [ 63.5986288, 53.2118807 ] } },
{ "type": "Feature", "properties": { "name": "Qazaq Oil", "amenity": "fuel", "shop": "convenience" }, "geometry": { "type": "Point", "coordinates": [ 63.580735, 53.2142323 ] } },
{ "type": "Feature", "properties": { "name": "Halyk Bank", "amenity": "bank", "shop": null }, "geometry": { "type": "Point", "coordinates": [ 63.6217434, 53.2226357 ] } },
{ "type": "Feature", "properties": { "name": null, "amenity": null, "shop": "convenience" }, "geometry": { "type": "Point", "coordinates": [ 63.6278023, 53.2191958 ] } },
{ "type": "Feature", "properties": { "name": null, "amenity": null, "shop": "department_store" }, "geometry": { "type": "Point", "coordinates": [ 63.6344768, 53.2199009 ] } },
{ "type": "Feature", "properties": { "name": "Нацбанк", "amenity": "bank", "shop": null }, "geometry": { "type": "Point", "coordinates": [ 63.6313435, 53.2180213 ] } },
{ "type": "Feature", "properties": { "name": "БТА", "amenity": "bank", "shop": null }, "geometry": { "type": "Point", "coordinates": [ 63.6326426, 53.2178138 ] } },
{ "type": "Feature", "properties": { "name": "ТД Алтын Орда", "amenity": null, "shop": "department_store" }, "geometry": { "type": "Point", "coordinates": [ 63.6405692, 53.2132667 ] } },
{ "type": "Feature", "properties": { "name": "Bereke Bank", "amenity": "bank", "shop": null }, "geometry": { "type": "Point", "coordinates": [ 63.6414458, 53.2129148 ] } },
{ "type": "Feature", "properties": { "name": "Ясли-сад № 15", "amenity": "kindergarten", "shop": null }, "geometry": { "type": "Point", "coordinates": [ 63.6438156, 53.2164067 ] } },
{ "type": "Feature", "properties": { "name": null, "amenity": null, "shop": "convenience" }, "geometry": { "type": "Point", "coordinates": [ 63.6393788, 53.2159971 ] } },
{ "type": "Feature", "properties": { "name": "№1 балалар музыка мектебі", "amenity": "music_school", "shop": null }, "geometry": { "type": "Point", "coordinates": [ 63.640282, 53.215413 ] } },
{ "type": "Feature", "properties": { "name": "Аптека Фармаком №100", "amenity": "pharmacy", "shop": null }, "geometry": { "type": "Point", "coordinates": [ 63.6348984, 53.2194268 ] } },
{ "type": "Feature", "properties": { "name": "Станция скорой медицинской помощи", "amenity": "hospital", "shop": null }, "geometry": { "type": "Point", "coordinates": [ 63.6363265, 53.2217786 ] } },
{ "type": "Feature", "properties": { "name": "Психоневрологический диспансер", "amenity": "hospital", "shop": null }, "geometry": { "type": "Point", "coordinates": [ 63.6315194, 53.2220802 ] } },
{ "type": "Feature", "properties": { "name": null, "amenity": "hospital", "shop": null }, "geometry": { "type": "Point", "coordinates": [ 63.6281124, 53.2238023 ] } },
{ "type": "Feature", "properties": { "name": "Женская консультация", "amenity": "hospital", "shop": null }, "geometry": { "type": "Point", "coordinates": [ 63.6271151, 53.224385 ] } },
{ "type": "Feature", "properties": { "name": "Средняя школа № 8", "amenity": "school", "shop": null }, "geometry": { "type": "Point", "coordinates": [ 63.6205652, 53.2258221 ] } },
{ "type": "Feature", "properties": { "name": "Елена", "amenity": null, "shop": "convenience" }, "geometry": { "type": "Point", "coordinates": [ 63.6214138, 53.2284227 ] } },
{ "type": "Feature", "properties": { "name": "Магазин Даулет", "amenity": null, "shop": "convenience" }, "geometry": { "type": "Point", "coordinates": [ 63.6187903, 53.2285584 ] } },
{ "type": "Feature", "properties": { "name": "Магазин Орбита", "amenity": null, "shop": "convenience" }, "geometry": { "type": "Point", "coordinates": [ 63.6180361, 53.2287684 ] } },
{ "type": "Feature", "properties": { "name": "Қостанай темір жол ауруханасы", "amenity": "hospital", "shop": null }, "geometry": { "type": "Point", "coordinates": [ 63.6220407, 53.2306964 ] } },
{ "type": "Feature", "properties": { "name": "ТОО Стофарм", "amenity": "pharmacy", "shop": null }, "geometry": { "type": "Point", "coordinates": [ 63.6310349, 53.2273062 ] } },
{ "type": "Feature", "properties": { "name": "Сабрина", "amenity": null, "shop": "convenience" }, "geometry": { "type": "Point", "coordinates": [ 63.6286119, 53.2259911 ] } },
{ "type": "Feature", "properties": { "name": "Nurbank", "amenity": "bank", "shop": null }, "geometry": { "type": "Point", "coordinates": [ 63.6291427, 53.2256664 ] } },
{ "type": "Feature", "properties": { "name": "Қостанай қаласы білім бөлімінің №14 жалпы білім беру мектебі", "amenity": "school", "shop": null }, "geometry": { "type": "Point", "coordinates": [ 63.6493078, 53.2155353 ] } },
{ "type": "Feature", "properties": { "name": "ТоТ, 156", "amenity": null, "shop": "supermarket" }, "geometry": { "type": "Point", "coordinates": [ 63.6327045, 53.2306431 ] } },
{ "type": "Feature", "properties": { "name": "ГККП \"Костанайский областной наркологический диспансер\"", "amenity": "hospital", "shop": null }, "geometry": { "type": "Point", "coordinates": [ 63.6342176, 53.2335907 ] } },
{ "type": "Feature", "properties": { "name": null, "amenity": "kindergarten", "shop": null }, "geometry": { "type": "Point", "coordinates": [ 63.6325646, 53.2336669 ] } },
{ "type": "Feature", "properties": { "name": "Вечерняя Школа №1", "amenity": "school", "shop": null }, "geometry": { "type": "Point", "coordinates": [ 63.6345528, 53.2352787 ] } },
{ "type": "Feature", "properties": { "name": "45-й Магазин", "amenity": null, "shop": "convenience" }, "geometry": { "type": "Point", "coordinates": [ 63.6346089, 53.2340434 ] } },
{ "type": "Feature", "properties": { "name": "Школа-гимназия имени Б. Момышулы", "amenity": "school", "shop": null }, "geometry": { "type": "Point", "coordinates": [ 63.6362369, 53.2345214 ] } },
{ "type": "Feature", "properties": { "name": "Sulpak", "amenity": null, "shop": "department_store" }, "geometry": { "type": "Point", "coordinates": [ 63.6540525, 53.227812 ] } },
{ "type": "Feature", "properties": { "name": null, "amenity": null, "shop": "department_store" }, "geometry": { "type": "Point", "coordinates": [ 63.6582902, 53.228157 ] } },
{ "type": "Feature", "properties": { "name": "Средняя школа № 11", "amenity": "school", "shop": null }, "geometry": { "type": "Point", "coordinates": [ 63.6598904, 53.2281732 ] } },
{ "type": "Feature", "properties": { "name": null, "amenity": null, "shop": "convenience" }, "geometry": { "type": "Point", "coordinates": [ 63.6507075, 53.2320297 ] } },
{ "type": "Feature", "properties": { "name": null, "amenity": null, "shop": "convenience" }, "geometry": { "type": "Point", "coordinates": [ 63.6501086, 53.2326633 ] } },
{ "type": "Feature", "properties": { "name": "Ясли-сад № 14", "amenity": "kindergarten", "shop": null }, "geometry": { "type": "Point", "coordinates": [ 63.6665396, 53.2316201 ] } },
{ "type": "Feature", "properties": { "name": "Детский сад № 23 Антошка", "amenity": "kindergarten", "shop": null }, "geometry": { "type": "Point", "coordinates": [ 63.6674764, 53.2339755 ] } },
{ "type": "Feature", "properties": { "name": "ТЦ Караван", "amenity": null, "shop": "department_store" }, "geometry": { "type": "Point", "coordinates": [ 63.6611252, 53.2323642 ] } },
{ "type": "Feature", "properties": { "name": "Kostanay Plaza", "amenity": null, "shop": "mall" }, "geometry": { "type": "Point", "coordinates": [ 63.6134165, 53.2365 ] } },
{ "type": "Feature", "properties": { "name": "Медицинский Центр \"Жемчужина\"", "amenity": "clinic", "shop": null }, "geometry": { "type": "Point", "coordinates": [ 63.6269706, 53.202495 ] } },
{ "type": "Feature", "properties": { "name": "БУМ", "amenity": null, "shop": "department_store" }, "geometry": { "type": "Point", "coordinates": [ 63.6243505, 53.2012203 ] } },
{ "type": "Feature", "properties": { "name": null, "amenity": "hospital", "shop": null }, "geometry": { "type": "Point", "coordinates": [ 63.6270777, 53.2024911 ] } },
{ "type": "Feature", "properties": { "name": "Жилстройсбербанк Казахстана", "amenity": "bank", "shop": null }, "geometry": { "type": "Point", "coordinates": [ 63.6352793, 53.2122672 ] } },
{ "type": "Feature", "properties": { "name": "Детский сад", "amenity": "kindergarten", "shop": null }, "geometry": { "type": "Point", "coordinates": [ 63.6073308, 53.2239049 ] } },
{ "type": "Feature", "properties": { "name": "Облыстық аурухана", "amenity": "hospital", "shop": null }, "geometry": { "type": "Point", "coordinates": [ 63.629999, 53.2236894 ] } },
{ "type": "Feature", "properties": { "name": "Дәстүр", "amenity": null, "shop": "department_store" }, "geometry": { "type": "Point", "coordinates": [ 63.64185, 53.2183861 ] } },
{ "type": "Feature", "properties": { "name": "ТД Мега", "amenity": null, "shop": "department_store" }, "geometry": { "type": "Point", "coordinates": [ 63.6450004, 53.2195145 ] } },
{ "type": "Feature", "properties": { "name": "Стоматологическая поликлиника Коктем", "amenity": "hospital", "shop": null }, "geometry": { "type": "Point", "coordinates": [ 63.6317966, 53.2164681 ] } },
{ "type": "Feature", "properties": { "name": null, "amenity": null, "shop": "convenience" }, "geometry": { "type": "Point", "coordinates": [ 63.6420397, 53.2392067 ] } },
{ "type": "Feature", "properties": { "name": null, "amenity": null, "shop": "convenience" }, "geometry": { "type": "Point", "coordinates": [ 63.6423542, 53.2392308 ] } },
{ "type": "Feature", "properties": { "name": null, "amenity": null, "shop": "convenience" }, "geometry": { "type": "Point", "coordinates": [ 63.6417627, 53.2391808 ] } },
{ "type": "Feature", "properties": { "name": null, "amenity": null, "shop": "convenience" }, "geometry": { "type": "Point", "coordinates": [ 63.6427005, 53.2392033 ] } },
{ "type": "Feature", "properties": { "name": "Кульзара", "amenity": null, "shop": "convenience" }, "geometry": { "type": "Point", "coordinates": [ 63.6331692, 53.1998083 ] } },
{ "type": "Feature", "properties": { "name": "Нариман", "amenity": null, "shop": "convenience" }, "geometry": { "type": "Point", "coordinates": [ 63.6363391, 53.2022219 ] } },
{ "type": "Feature", "properties": { "name": "Дачный", "amenity": null, "shop": "convenience" }, "geometry": { "type": "Point", "coordinates": [ 63.6332232, 53.1957901 ] } },
{ "type": "Feature", "properties": { "name": "Airat", "amenity": null, "shop": "supermarket" }, "geometry": { "type": "Point", "coordinates": [ 63.619836, 53.2281386 ] } },
{ "type": "Feature", "properties": { "name": "Медея", "amenity": null, "shop": "convenience" }, "geometry": { "type": "Point", "coordinates": [ 63.6219272, 53.2293679 ] } },
{ "type": "Feature", "properties": { "name": "МЦ Медионика", "amenity": "clinic", "shop": null }, "geometry": { "type": "Point", "coordinates": [ 63.6291317, 53.1988784 ] } },
{ "type": "Feature", "properties": { "name": null, "amenity": null, "shop": "supermarket" }, "geometry": { "type": "Point", "coordinates": [ 63.6256487, 53.2000963 ] } },
{ "type": "Feature", "properties": { "name": "Париж", "amenity": null, "shop": "department_store" }, "geometry": { "type": "Point", "coordinates": [ 63.6249854, 53.2014509 ] } },
{ "type": "Feature", "properties": { "name": "Чингисхан", "amenity": null, "shop": "supermarket" }, "geometry": { "type": "Point", "coordinates": [ 63.6208171, 53.1970668 ] } },
{ "type": "Feature", "properties": { "name": null, "amenity": null, "shop": "supermarket" }, "geometry": { "type": "Point", "coordinates": [ 63.6233079, 53.1964138 ] } },
{ "type": "Feature", "properties": { "name": null, "amenity": null, "shop": "supermarket" }, "geometry": { "type": "Point", "coordinates": [ 63.6179607, 53.1950284 ] } },
{ "type": "Feature", "properties": { "name": null, "amenity": null, "shop": "supermarket" }, "geometry": { "type": "Point", "coordinates": [ 63.6150095, 53.1934632 ] } },
{ "type": "Feature", "properties": { "name": "Быт Хим", "amenity": null, "shop": "supermarket" }, "geometry": { "type": "Point", "coordinates": [ 63.6147018, 53.1936271 ] } },
{ "type": "Feature", "properties": { "name": "Ар ерке и К", "amenity": "kindergarten", "shop": null }, "geometry": { "type": "Point", "coordinates": [ 63.6016988, 53.1883402 ] } },
{ "type": "Feature", "properties": { "name": null, "amenity": null, "shop": "convenience" }, "geometry": { "type": "Point", "coordinates": [ 63.5999218, 53.1875246 ] } },
{ "type": "Feature", "properties": { "name": null, "amenity": "hospital", "shop": null }, "geometry": { "type": "Point", "coordinates": [ 63.6257158, 53.2078528 ] } },
{ "type": "Feature", "properties": { "name": "Школа №15", "amenity": "school", "shop": null }, "geometry": { "type": "Point", "coordinates": [ 63.5928438, 53.2375078 ] } },
{ "type": "Feature", "properties": { "name": "Апельсин", "amenity": null, "shop": "mall" }, "geometry": { "type": "Point", "coordinates": [ 63.6603145, 53.2021343 ] } },
{ "type": "Feature", "properties": { "name": "Цветная", "amenity": "pharmacy", "shop": null }, "geometry": { "type": "Point", "coordinates": [ 63.6113847, 53.2253554 ] } },
{ "type": "Feature", "properties": { "name": "Қостанай облыстық ауруханасы", "amenity": "hospital", "shop": null }, "geometry": { "type": "Point", "coordinates": [ 63.5808661, 53.2178161 ] } },
{ "type": "Feature", "properties": { "name": "Дария", "amenity": null, "shop": "convenience" }, "geometry": { "type": "Point", "coordinates": [ 63.6111284, 53.2112362 ] } },
{ "type": "Feature", "properties": { "name": "Нар", "amenity": null, "shop": "supermarket" }, "geometry": { "type": "Point", "coordinates": [ 63.6165134, 53.2075702 ] } },
{ "type": "Feature", "properties": { "name": "Арзу", "amenity": null, "shop": "convenience" }, "geometry": { "type": "Point", "coordinates": [ 63.6301273, 53.2343448 ] } },
{ "type": "Feature", "properties": { "name": null, "amenity": null, "shop": "convenience" }, "geometry": { "type": "Point", "coordinates": [ 63.6301087, 53.2346689 ] } },
{ "type": "Feature", "properties": { "name": null, "amenity": "school", "shop": null }, "geometry": { "type": "Point", "coordinates": [ 63.6367786, 53.2348363 ] } },
{ "type": "Feature", "properties": { "name": null, "amenity": "school", "shop": null }, "geometry": { "type": "Point", "coordinates": [ 63.6370584, 53.234634 ] } },
{ "type": "Feature", "properties": { "name": "Смак", "amenity": null, "shop": "convenience" }, "geometry": { "type": "Point", "coordinates": [ 63.6308324, 53.2343046 ] } }
]
}
